ONEWEB-0613             
1 56071U 23043AB  23350.27414465  .00000002  00000+0 -29781-4 0  9990
2 56071  87.9013  81.1394 0001628 120.9176 239.2114 13.15549621 36275
ONEWEB-0630             
1 56072U 23043AC  23350.34544202  .00000116  00000+0  27387-3 0  9996
2 56072  87.9007  81.1228 0001848 122.3399 237.7910 13.15549713 36271
ONEWEB-0632             
1 56073U 23043AD  23350.26463394  .00000167  00000+0  40888-3 0  9997
2 56073  87.9011  81.1570 0001299 108.4171 251.7101 13.15550875 36268
ONEWEB-0633             
1 56074U 23043AE  23350.33434706  .00000234  00000+0  58648-3 0  9999
2 56074  87.9005  81.1316 0002098 125.6884 234.4441 13.15549802 36252
ONEWEB-0634             
1 56075U 23043AF  23350.32010251  .00000183  00000+0  45305-3 0  9993
2 56075  87.9009  81.1335 0002175 107.0795 253.0574 13.15549774 36240
ONEWEB-0635             
1 56076U 23043AG  23350.31532687 -.00000244  00000+0 -68123-3 0  9998
2 56076  87.8974  81.1964 0001216 108.0094 252.1169 13.15548419 36275
ONEWEB-0636             
1 56077U 23043AH  23350.30740205 -.00000340  00000+0 -93672-3 0  9999
2 56077  87.8997  81.1641 0001409 104.1900 255.9386 13.15549664 36253
ONEWEB-0637             
1 56078U 23043AJ  23350.30108236 -.00000003  00000+0 -41409-4 0  9990
2 56078  87.9010  81.1401 0001256  93.7636 266.3638 13.15548445 36278
